{
    "links": {
        "self": "http://www.neowsapp.com/rest/v1/neo/3726816?api_key=iIulBulltgU6a56xZRHN4H3l9WmuAYTsLGpBGhQ2"
    },
    "id": "3726816",
    "neo_reference_id": "3726816",
    "name": "(2015 RW2)",
    "designation": "2015 RW2",
    "nasa_jpl_url": "http://ssd.jpl.nasa.gov/sbdb.cgi?sstr=3726816",
    "absolute_magnitude_h": 27.4,
    "estimated_diameter": {
        "kilometers": {
            "estimated_diameter_min": 0.0088014652,
            "estimated_diameter_max": 0.0196806745
        },
        "meters": {
            "estimated_diameter_min": 8.801465209,
            "estimated_diameter_max": 19.6806745089
        },
        "miles": {
            "estimated_diameter_min": 0.0054689752,
            "estimated_diameter_max": 0.0122290004
        },
        "feet": {
            "estimated_diameter_min": 28.8761991163,
            "estimated_diameter_max": 64.5691441559
        }
    },
    "is_potentially_hazardous_asteroid": false,
    "close_approach_data": [
        {
            "close_approach_date": "2015-09-04",
            "close_approach_date_full": "2015-Sep-04 19:42",
            "epoch_date_close_approach": 1441395720000,
            "relative_velocity": {
                "kilometers_per_second": "6.6112115334",
                "kilometers_per_hour": "23800.3615202397",
                "miles_per_hour": "14788.6190790623"
            },
            "miss_distance": {
                "astronomical": "0.013145371",
                "lunar": "5.113549319",
                "kilometers": "1966519.50195977",
                "miles": "1221938.556474026"
            },
            "orbiting_body": "Earth"
        }
    ],
    "orbital_data": {
        "orbit_id": "7",
        "orbit_determination_date": "2017-04-06 08:34:06",
        "first_observation_date": "2015-09-10",
        "last_observation_date": "2015-09-20",
        "data_arc_in_days": 10,
        "observations_used": 16,
        "orbit_uncertainty": "8",
        "minimum_orbit_intersection": ".00566771",
        "jupiter_tisserand_invariant": "3.985",
        "epoch_osculation": "2457278.5",
        "eccentricity": ".4317560798161107",
        "semi_major_axis": "1.77486806034671",
        "inclination": "1.262329586304945",
        "ascending_node_longitude": "168.6839932056645",
        "orbital_period": "863.6694106220547",
        "perihelion_distance": "1.00855798442059",
        "perihelion_argument": "157.3266038680139",
        "aphelion_distance": "2.541178136272829",
        "perihelion_time": "2457257.031835270448",
        "mean_anomaly": "8.948492568553828",
        "mean_motion": ".4168261554391643",
        "equinox": "J2000",
        "orbit_class": {
            "orbit_class_type": "APO",
            "orbit_class_description": "Near-Earth asteroid orbits which cross the Earth’s orbit similar to that of 1862 Apollo",
            "orbit_class_range": "a (semi-major axis) > 1.0 AU; q (perihelion) < 1.017 AU"
        }
    },
    "is_sentry_object": false
}